[
    {
        "Altitude(m)": 716681.5068053085,
        "Argument of Periapsis(deg)": 0.010251109067964361,
        "Eccentricity": 0.0,
        "Inclination(deg)": 45.0,
        "Latitude(deg)": -42.25282825052524,
        "Longitude(deg)": 139.67710868584277,
        "Mean Anomaly(deg)": -71.43830501726724,
        "RAAN(deg)": 304.99032325268763,
        "Satellite Name": "Constellation 1 1359",
        "Satellite Number": 1359,
        "Semi-Major Axis(m)": 7083131.272910544,
        "Time(s)": 171
    },
    {
        "Altitude(m)": 716673.8728331709,
        "Argument of Periapsis(deg)": 0.010311057074209765,
        "Eccentricity": 0.0,
        "Inclination(deg)": 45.0,
        "Latitude(deg)": -42.23441576655291,
        "Longitude(deg)": 139.75075523220906,
        "Mean Anomaly(deg)": -71.37760387701734,
        "RAAN(deg)": 304.99026666352205,
        "Satellite Name": "Constellation 1 1359",
        "Satellite Number": 1359,
        "Semi-Major Axis(m)": 7083131.272910544,
        "Time(s)": 172
    },
    {
        "Altitude(m)": 716666.2168980356,
        "Argument of Periapsis(deg)": 0.010371005080455171,
        "Eccentricity": 0.0,
        "Inclination(deg)": 45.0,
        "Latitude(deg)": -42.21595054548819,
        "Longitude(deg)": 139.82435663526203,
        "Mean Anomaly(deg)": -71.3169027367675,
        "RAAN(deg)": 304.9902100743565,
        "Satellite Name": "Constellation 1 1359",
        "Satellite Number": 1359,
        "Semi-Major Axis(m)": 7083131.272910544,
        "Time(s)": 173
    },
    {
        "Altitude(m)": 716658.5390279785,
        "Argument of Periapsis(deg)": 0.010430953086700577,
        "Eccentricity": 0.0,
        "Inclination(deg)": 45.0,
        "Latitude(deg)": -42.19743265124068,
        "Longitude(deg)": 139.89791282174582,
        "Mean Anomaly(deg)": -71.25620159651751,
        "RAAN(deg)": 304.9901534851909,
        "Satellite Name": "Constellation 1 1359",
        "Satellite Number": 1359,
        "Semi-Major Axis(m)": 7083131.272910544,
        "Time(s)": 174
    },
    {
        "Altitude(m)": 716650.8392511607,
        "Argument of Periapsis(deg)": 0.010490901092945983,
        "Eccentricity": 0.0,
        "Inclination(deg)": 45.0,
        "Latitude(deg)": -42.17886214780615,
        "Longitude(deg)": 139.9714237189531,
        "Mean Anomaly(deg)": -71.19550045626774,
        "RAAN(deg)": 304.9900968960253,
        "Satellite Name": "Constellation 1 1359",
        "Satellite Number": 1359,
        "Semi-Major Axis(m)": 7083131.272910544,
        "Time(s)": 175
    },
    {
        "Altitude(m)": 716643.1175958209,
        "Argument of Periapsis(deg)": 0.010550849099191389,
        "Eccentricity": 0.0,
        "Inclination(deg)": 45.0,
        "Latitude(deg)": -42.16023909926541,
        "Longitude(deg)": 140.04488925472623,
        "Mean Anomaly(deg)": -71.1347993160178,
        "RAAN(deg)": 304.9900403068598,
        "Satellite Name": "Constellation 1 1359",
        "Satellite Number": 1359,
        "Semi-Major Axis(m)": 7083131.272910544,
        "Time(s)": 176
    },
    {
        "Altitude(m)": 716635.374090265,
        "Argument of Periapsis(deg)": 0.010610797105436795,
        "Eccentricity": 0.0,
        "Inclination(deg)": 45.0,
        "Latitude(deg)": -42.14156356978371,
        "Longitude(deg)": 140.11830935745496,
        "Mean Anomaly(deg)": -71.07409817576786,
        "RAAN(deg)": 304.9899837176942,
        "Satellite Name": "Constellation 1 1359",
        "Satellite Number": 1359,
        "Semi-Major Axis(m)": 7083131.272910544,
        "Time(s)": 177
    },
    {
        "Altitude(m)": 716627.6087628971,
        "Argument of Periapsis(deg)": 0.0106707451116822,
        "Eccentricity": 0.0,
        "Inclination(deg)": 45.0,
        "Latitude(deg)": -42.122835623609646,
        "Longitude(deg)": 140.19168378798014,
        "Mean Anomaly(deg)": -71.01339703551793,
        "RAAN(deg)": 304.9899271285287,
        "Satellite Name": "Constellation 1 1359",
        "Satellite Number": 1359,
        "Semi-Major Axis(m)": 7083131.272910544,
        "Time(s)": 178
    },
    {
        "Altitude(m)": 716619.8216421866,
        "Argument of Periapsis(deg)": 0.010730693117927606,
        "Eccentricity": 0.0,
        "Inclination(deg)": 45.0,
        "Latitude(deg)": -42.10405532507506,
        "Longitude(deg)": 140.26501281198,
        "Mean Anomaly(deg)": -70.95269589526808,
        "RAAN(deg)": 304.98987053936304,
        "Satellite Name": "Constellation 1 1359",
        "Satellite Number": 1359,
        "Semi-Major Axis(m)": 7083131.272910544,
        "Time(s)": 179
    },
    {
        "Altitude(m)": 716612.0127566899,
        "Argument of Periapsis(deg)": 0.01079064112417301,
        "Eccentricity": 0.0,
        "Inclination(deg)": 45.0,
        "Latitude(deg)": -42.085222738592854,
        "Longitude(deg)": 140.33829619138965,
        "Mean Anomaly(deg)": -70.89199475501815,
        "RAAN(deg)": 304.98981395019746,
        "Satellite Name": "Constellation 1 1359",
        "Satellite Number": 1359,
        "Semi-Major Axis(m)": 7083131.272910544,
        "Time(s)": 180
    },
    {
        "Altitude(m)": 716604.1821350339,
        "Argument of Periapsis(deg)": 0.010850589130418416,
        "Eccentricity": 0.0,
        "Inclination(deg)": 45.0,
        "Latitude(deg)": -42.06633792865729,
        "Longitude(deg)": 140.41153385678638,
        "Mean Anomaly(deg)": -70.83129361476821,
        "RAAN(deg)": 304.98975736103193,
        "Satellite Name": "Constellation 1 1359",
        "Satellite Number": 1359,
        "Semi-Major Axis(m)": 7083131.272910544,
        "Time(s)": 181
    },
    {
        "Altitude(m)": 716596.3298059306,
        "Argument of Periapsis(deg)": 0.01091053713666382,
        "Eccentricity": 0.0,
        "Inclination(deg)": 45.0,
        "Latitude(deg)": -42.04740095984266,
        "Longitude(deg)": 140.48472573929308,
        "Mean Anomaly(deg)": -70.77059247451842,
        "RAAN(deg)": 304.98970077186635,
        "Satellite Name": "Constellation 1 1359",
        "Satellite Number": 1359,
        "Semi-Major Axis(m)": 7083131.272910544,
        "Time(s)": 182
    },
    {
        "Altitude(m)": 716588.4557981647,
        "Argument of Periapsis(deg)": 0.010970485142909228,
        "Eccentricity": 0.0,
        "Inclination(deg)": 45.0,
        "Latitude(deg)": -42.02841189680245,
        "Longitude(deg)": 140.55787177057826,
        "Mean Anomaly(deg)": -70.70989133426849,
        "RAAN(deg)": 304.98964418270083,
        "Satellite Name": "Constellation 1 1359",
        "Satellite Number": 1359,
        "Semi-Major Axis(m)": 7083131.272910544,
        "Time(s)": 183
    },
    {
        "Altitude(m)": 716580.5601406045,
        "Argument of Periapsis(deg)": 0.011030433149154634,
        "Eccentricity": 0.0,
        "Inclination(deg)": 45.0,
        "Latitude(deg)": -42.00937080426869,
        "Longitude(deg)": 140.63097188285414,
        "Mean Anomaly(deg)": -70.6491901940185,
        "RAAN(deg)": 304.9895875935352,
        "Satellite Name": "Constellation 1 1359",
        "Satellite Number": 1359,
        "Semi-Major Axis(m)": 7083131.272910544,
        "Time(s)": 184
    },
    {
        "Altitude(m)": 716572.642862191,
        "Argument of Periapsis(deg)": 0.01109038115540004,
        "Eccentricity": 0.0,
        "Inclination(deg)": 45.0,
        "Latitude(deg)": -41.99027774705083,
        "Longitude(deg)": 140.70402584078002,
        "Mean Anomaly(deg)": -70.58848905376867,
        "RAAN(deg)": 304.9895310043696,
        "Satellite Name": "Constellation 1 1359",
        "Satellite Number": 1359,
        "Semi-Major Axis(m)": 7083131.272910544,
        "Time(s)": 185
    },
    {
        "Altitude(m)": 716564.7039919505,
        "Argument of Periapsis(deg)": 0.011150329161645444,
        "Eccentricity": 0.0,
        "Inclination(deg)": 45.0,
        "Latitude(deg)": -41.97113279003558,
        "Longitude(deg)": 140.77703391384898,
        "Mean Anomaly(deg)": -70.52778791351878,
        "RAAN(deg)": 304.9894744152041,
        "Satellite Name": "Constellation 1 1359",
        "Satellite Number": 1359,
        "Semi-Major Axis(m)": 7083131.272910544,
        "Time(s)": 186
    },
    {
        "Altitude(m)": 716556.7435589745,
        "Argument of Periapsis(deg)": 0.01121027716789085,
        "Eccentricity": 0.0,
        "Inclination(deg)": 45.0,
        "Latitude(deg)": -41.95193599818498,
        "Longitude(deg)": 140.84999586780654,
        "Mean Anomaly(deg)": -70.46708677326885,
        "RAAN(deg)": 304.9894178260385,
        "Satellite Name": "Constellation 1 1359",
        "Satellite Number": 1359,
        "Semi-Major Axis(m)": 7083131.272910544,
        "Time(s)": 187
    },
    {
        "Altitude(m)": 716548.7615924511,
        "Argument of Periapsis(deg)": 0.011270225174136258,
        "Eccentricity": 0.0,
        "Inclination(deg)": 45.0,
        "Latitude(deg)": -41.932687436536405,
        "Longitude(deg)": 140.9229116370365,
        "Mean Anomaly(deg)": -70.40638563301901,
        "RAAN(deg)": 304.989361236873,
        "Satellite Name": "Constellation 1 1359",
        "Satellite Number": 1359,
        "Semi-Major Axis(m)": 7083131.272910544,
        "Time(s)": 188
    },
    {
        "Altitude(m)": 716540.7581216266,
        "Argument of Periapsis(deg)": 0.011330173180381662,
        "Eccentricity": 0.0,
        "Inclination(deg)": 45.0,
        "Latitude(deg)": -41.913387170201425,
        "Longitude(deg)": 140.99578115646432,
        "Mean Anomaly(deg)": -70.34568449276907,
        "RAAN(deg)": 304.9893046477074,
        "Satellite Name": "Constellation 1 1359",
        "Satellite Number": 1359,
        "Semi-Major Axis(m)": 7083131.272910544,
        "Time(s)": 189
    }
]